{"fetched_at":"2026-07-09T08:01:20.845Z","source":"https://celestrak.org/NORAD/elements/gp.php?NAME=RCM&FORMAT=JSON","constellation":"rcm","records":[{"OBJECT_NAME":"RCM-1","OBJECT_ID":"2019-033A","EPOCH":"2026-07-08T23:52:11.144352","CLASSIFICATION_TYPE":"U","MEAN_MOTION":14.92588401,"ECCENTRICITY":0.00015123,"INCLINATION":97.76,"RA_OF_ASC_NODE":197.1327,"ARG_OF_PERICENTER":91.3288,"MEAN_ANOMALY":296.7826,"EPHEMERIS_TYPE":0,"NORAD_CAT_ID":44322,"ELEMENT_SET_NO":999,"REV_AT_EPOCH":38533,"BSTAR":0.000046711304,"MEAN_MOTION_DOT":0.00000425,"MEAN_MOTION_DDOT":0},{"OBJECT_NAME":"RCM-2","OBJECT_ID":"2019-033C","EPOCH":"2026-07-08T23:12:41.004864","CLASSIFICATION_TYPE":"U","MEAN_MOTION":14.92586192,"ECCENTRICITY":0.00015037,"INCLINATION":97.76,"RA_OF_ASC_NODE":197.1503,"ARG_OF_PERICENTER":90.5513,"MEAN_ANOMALY":269.5879,"EPHEMERIS_TYPE":0,"NORAD_CAT_ID":44324,"ELEMENT_SET_NO":999,"REV_AT_EPOCH":38533,"BSTAR":0.000021939512,"MEAN_MOTION_DOT":0.0000017,"MEAN_MOTION_DDOT":0}]}
